MEAN_MOTION;ECCENTRICITY;INCLINATION;RA_OF_ASC_NODE;ARG_OF_PERICENTER;MEAN_ANOMALY;BSTAR;MEAN_MOTION_DOT;MEAN_MOTION_DDOT;TYPE
2.00578649;0.0018228;55.8325;74.9544;290.7715;69.066;0;1.8E-7;0;Weather
2.00578649;0.0018228;55.8325;74.9544;290.7715;69.066;0;1.8E-7;0;Weather
2.00578616;0.0018231;55.8328;74.9346;290.7917;69.0455;0;1.8E-7;0;Weather
2.00578575;0.0018237;55.8332;74.9148;290.846;68.9906;0;1.7E-7;0;Weather
2.00578488;0.0018239;55.8339;74.8753;290.9162;68.9179;0;1.3E-7;0;Weather
2.00578452;0.0018242;55.8343;74.8555;290.9589;68.8733;0;1.0E-7;0;Weather
2.0057843;0.0018249;55.8347;74.8357;290.9555;68.8743;0;6.0E-8;0;Weather
2.00578409;0.0018251;55.835;74.8159;290.9883;68.8388;0;1.0E-8;0;Weather
2.00578409;0.0018251;55.835;74.8159;290.9883;68.8388;0;1.0E-8;0;Weather
2.00578343;0.0018259;55.8358;74.7763;291.0603;68.761;0;-8.0E-8;0;Weather
2.0057833;0.0018255;55.8361;74.7566;291.0712;68.7472;0;-1.3E-7;0;Weather
2.0057829;0.0018264;55.8365;74.7368;291.1247;68.6908;0;-1.8E-7;0;Weather
2.00578277;0.0018268;55.8369;74.717;291.1421;68.6707;0;-2.2E-7;0;Weather
2.00578205;0.0018278;55.838;74.6577;291.2345;68.5726;0;-3.1E-7;0;Weather
2.00578183;0.0018281;55.8384;74.6379;291.2697;68.5363;0;-3.2E-7;0;Weather
2.00578137;0.0018287;55.8392;74.5984;291.3313;68.474;0;-3.1E-7;0;Weather
2.0057811;0.0018287;55.8396;74.5786;291.3714;68.4341;0;-3.0E-7;0;Weather
2.00578102;0.0018289;55.8399;74.5589;291.388;68.418;0;-2.8E-7;0;Weather
2.0057808;0.0018289;55.8403;74.5391;291.419;68.3876;0;-2.6E-7;0;Weather
2.00578048;0.0018287;55.8407;74.5194;291.4797;68.3279;0;-2.3E-7;0;Weather
2.00578019;0.0018289;55.8414;74.4799;291.5303;68.2791;0;-1.7E-7;0;Weather
2.00577999;0.0018287;55.8417;74.4601;291.5525;68.2577;0;-1.4E-7;0;Weather
2.00577975;0.0018287;55.8421;74.4404;291.5857;68.2253;0;-1.2E-7;0;Weather
2.00577948;0.0018286;55.8424;74.4206;291.618;68.1935;0;-9.0E-8;0;Weather
2.00577905;0.0018286;55.8428;74.4009;291.6683;68.1436;0;-8.0E-8;0;Weather
2.00577877;0.0018286;55.8431;74.3811;291.6965;68.1154;0;-6.0E-8;0;Weather
2.00577851;0.0018285;55.8435;74.3614;291.7164;68.0953;0;-6.0E-8;0;Weather
2.00577816;0.0018288;55.8438;74.3417;291.7658;68.0455;0;-5.0E-8;0;Weather
2.00577807;0.0018282;55.8439;74.3417;291.7797;68.0316;0;-5.0E-8;0;Weather
2.00577755;0.0018288;55.8446;74.3022;291.8207;67.9889;0;-5.0E-8;0;Weather
2.00577725;0.0018288;55.8449;74.2825;291.8521;67.9563;0;-5.0E-8;0;Weather
2.00577684;0.0018287;55.8453;74.2628;291.8897;67.9173;0;-6.0E-8;0;Weather
2.00577652;0.0018283;55.8456;74.243;291.9337;67.8719;0;-6.0E-8;0;Weather
2.00577652;0.0018283;55.8456;74.243;291.9337;67.8719;0;-6.0E-8;0;Weather
2.00577444;0.0018278;55.847;74.1642;292.1351;67.664;0;-7.0E-8;0;Weather
2.0057739;0.0018275;55.8477;74.1247;292.1681;67.6282;0;-6.0E-8;0;Weather
2.00577298;0.001827;55.8484;74.0853;292.237;67.5575;0;-4.0E-8;0;Weather
2.00577209;0.0018266;55.8491;74.0458;292.3023;67.4913;0;-1.0E-8;0;Weather
2.00577191;0.0018273;55.8491;74.0458;292.3006;67.493;0;-1.0E-8;0;Weather
2.00577148;0.0018271;55.8494;74.026;292.3273;67.4663;0;0;0;Weather
2.00577098;0.0018272;55.8498;74.0063;292.3641;67.4299;0;2.0E-8;0;Weather
2.0057703;0.0018269;55.8501;73.9866;292.4174;67.3772;0;4.0E-8;0;Weather
2.00576989;0.001827;55.8505;73.9668;292.4429;67.3525;0;6.0E-8;0;Weather
2.00576948;0.0018271;55.8508;73.9471;292.458;67.3382;0;7.0E-8;0;Weather
2.00576913;0.001827;55.8512;73.9273;292.4965;67.3005;0;9.0E-8;0;Weather
2.00576891;0.001826;55.8512;73.9274;292.5097;67.2875;0;9.0E-8;0;Weather
2.00576791;0.0018263;55.8522;73.8681;292.5831;67.2158;0;1.0E-7;0;Weather
2.00576769;0.0018255;55.8522;73.8681;292.6202;67.1789;0;1.0E-7;0;Weather
2.00576713;0.0018253;55.8529;73.8286;292.6691;67.1296;0;8.0E-8;0;Weather
2.00576705;0.001825;55.8529;73.8286;292.6798;67.119;0;8.0E-8;0;Weather
2.00576658;0.0018239;55.8533;73.8089;292.7039;67.0942;0;6.0E-8;0;Weather
2.00576628;0.001824;55.8536;73.7891;292.7392;67.0577;0;3.0E-8;0;Weather
2.00576594;0.0018237;55.854;73.7694;292.764;67.0313;0;-1.0E-8;0;Weather
2.00576521;0.0018226;55.8546;73.7299;292.8178;66.9733;0;-1.0E-7;0;Weather
2.00576474;0.0018213;55.855;73.7101;292.8459;66.9429;0;-1.5E-7;0;Weather
2.00576437;0.0018203;55.8557;73.6706;292.9251;66.8589;0;-2.6E-7;0;Weather
2.00576374;0.0018195;55.8564;73.6311;292.9661;66.8136;0;-3.5E-7;0;Weather
2.00576357;0.0018186;55.8567;73.6113;293.0036;66.7744;0;-3.9E-7;0;Weather
2.00576348;0.0018184;55.8571;73.5916;293.0238;66.7529;0;-4.2E-7;0;Weather
2.00576313;0.001818;55.8575;73.5718;293.0399;66.736;0;-4.5E-7;0;Weather
2.00576295;0.0018171;55.8582;73.5323;293.0801;66.6956;0;-4.6E-7;0;Weather
2.00576274;0.0018171;55.8582;73.5323;293.0956;66.6801;0;-4.6E-7;0;Weather
2.0057624;0.001816;55.8589;73.4929;293.1343;66.6426;0;-4.5E-7;0;Weather
2.00576214;0.0018154;55.8592;73.4731;293.16;66.6182;0;-4.3E-7;0;Weather
2.0057621;0.0018141;55.8595;73.4534;293.2079;66.5717;0;-4.1E-7;0;Weather
2.0057621;0.0018141;55.8595;73.4534;293.2079;66.5717;0;-4.1E-7;0;Weather
2.00576188;0.0018138;55.8598;73.4337;293.2297;66.5513;0;-3.9E-7;0;Weather
2.00576158;0.0018124;55.8605;73.3942;293.2741;66.5101;0;-3.4E-7;0;Weather
2.00576108;0.0018114;55.8608;73.3745;293.309;66.4766;0;-3.2E-7;0;Weather
2.00576084;0.0018108;55.8612;73.3547;293.3174;66.4694;0;-3.0E-7;0;Weather
2.00576026;0.0018092;55.8618;73.3153;293.3704;66.4185;0;-2.7E-7;0;Weather
2.00576026;0.0018092;55.8618;73.3153;293.3704;66.4185;0;-2.7E-7;0;Weather
2.00575969;0.0018073;55.8625;73.2758;293.4409;66.3491;0;-2.6E-7;0;Weather
2.00575943;0.0018076;55.8628;73.2561;293.4523;66.3377;0;-2.6E-7;0;Weather
2.00575893;0.0018061;55.8635;73.2166;293.5038;66.2858;0;-2.7E-7;0;Weather
2.00575812;0.0018058;55.8638;73.1969;293.5549;66.2342;0;-2.8E-7;0;Weather
2.00575812;0.0018058;55.8638;73.1969;293.5549;66.2342;0;-2.8E-7;0;Weather
2.00575777;0.0018055;55.8641;73.1772;293.5676;66.2207;0;-2.9E-7;0;Weather
2.00575703;0.0018042;55.8648;73.1377;293.6359;66.1507;0;-3.0E-7;0;Weather
2.00575615;0.0018016;55.8654;73.0983;293.7165;66.0686;0;-3.1E-7;0;Weather
2.00575524;0.0017998;55.8664;73.0392;293.7794;66.0038;0;-3.0E-7;0;Weather
2.00575497;0.0017999;55.8664;73.0392;293.7903;65.9928;0;-3.0E-7;0;Weather
2.00575497;0.0017999;55.8664;73.0392;293.7903;65.9928;0;-3.0E-7;0;Weather
2.00575497;0.0017999;55.8664;73.0392;293.7903;65.9928;0;-3.0E-7;0;Weather
2.00575366;0.0017975;55.8673;72.98;293.8422;65.9412;0;-2.7E-7;0;Weather
2.00575303;0.0017969;55.8676;72.9602;293.8651;65.919;0;-2.5E-7;0;Weather
2.00575299;0.0017967;55.8676;72.9603;293.8825;65.9016;0;-2.5E-7;0;Weather
2.00575299;0.0017967;55.8676;72.9603;293.8825;65.9016;0;-2.5E-7;0;Weather
2.00575299;0.0017967;55.8676;72.9603;293.8825;65.9016;0;-2.5E-7;0;Weather
2.00575186;0.0017943;55.8683;72.9208;293.9283;65.8582;0;-2.2E-7;0;Weather
2.00575186;0.0017943;55.8683;72.9208;293.9283;65.8582;0;-2.2E-7;0;Weather
2.00575103;0.0017935;55.8689;72.8813;293.975;65.8144;0;-1.9E-7;0;Weather
2.00575034;0.0017926;55.8695;72.8419;294.0141;65.7786;0;-1.6E-7;0;Weather
2.00574973;0.0017906;55.8699;72.8222;294.0312;65.7632;0;-1.5E-7;0;Weather
2.00574896;0.0017887;55.8705;72.7827;294.0743;65.7227;0;-1.5E-7;0;Weather
2.00574809;0.0017862;55.8711;72.7432;294.1061;65.6921;0;-1.8E-7;0;Weather
2.00574784;0.0017858;55.8714;72.7235;294.1351;65.663;0;-2.0E-7;0;Weather
2.00574724;0.0017841;55.8721;72.684;294.148;65.6487;0;-2.7E-7;0;Weather
2.00574701;0.0017835;55.8721;72.684;294.1676;65.6292;0;-2.7E-7;0;Weather
2.00574655;0.0017819;55.8727;72.6445;294.1856;65.6084;0;-3.7E-7;0;Weather
2.00574655;0.0017819;55.8727;72.6445;294.1856;65.6084;0;-3.7E-7;0;Weather
2.00574641;0.0017812;55.8727;72.6445;294.193;65.6011;0;-3.7E-7;0;Weather
2.00574618;0.0017805;55.873;72.6247;294.2048;65.5876;0;-4.2E-7;0;Weather
2.0057459;0.0017796;55.8733;72.605;294.2202;65.5705;0;-4.7E-7;0;Weather
2.00574564;0.0017787;55.8737;72.5852;294.2318;65.5573;0;-5.3E-7;0;Weather
2.00574531;0.0017772;55.874;72.5655;294.2319;65.5559;0;-5.8E-7;0;Weather
2.00574531;0.0017772;55.874;72.5655;294.2319;65.5559;0;-5.8E-7;0;Weather
2.00574504;0.0017747;55.875;72.5062;294.2767;65.5088;0;-6.9E-7;0;Weather
2.00574492;0.0017755;55.875;72.5062;294.2641;65.5212;0;-6.9E-7;0;Weather
2.00574425;0.0017732;55.8756;72.4667;294.2942;65.4919;0;-7.2E-7;0;Weather
2.00574431;0.0017734;55.8756;72.4667;294.2922;65.4938;0;-7.2E-7;0;Weather
2.00574397;0.0017719;55.8759;72.447;294.3209;65.4662;0;-7.2E-7;0;Weather
2.00574382;0.001771;55.8762;72.4273;294.3279;65.4606;0;-7.2E-7;0;Weather
2.00574357;0.0017695;55.8765;72.4075;294.3555;65.4348;0;-7.1E-7;0;Weather
2.00574331;0.0017679;55.8769;72.3878;294.3721;65.4202;0;-6.9E-7;0;Weather
2.00574303;0.0017657;55.8778;72.3286;294.4126;65.3864;0;-6.2E-7;0;Weather
2.00574263;0.0017649;55.8778;72.3286;294.4201;65.379;0;-6.2E-7;0;Weather
2.00574236;0.0017638;55.8781;72.3089;294.4323;65.369;0;-6.0E-7;0;Weather
2.00574224;0.0017627;55.8785;72.2891;294.4353;65.3681;0;-5.8E-7;0;Weather
2.00574212;0.0017622;55.8784;72.2892;294.4522;65.3513;0;-5.8E-7;0;Weather
2.00574184;0.001761;55.8787;72.2694;294.4654;65.34;0;-5.6E-7;0;Weather
2.0057417;0.00176;55.8791;72.2497;294.4629;65.3443;0;-5.5E-7;0;Weather
2.00574119;0.0017573;55.8797;72.2102;294.4954;65.3146;0;-5.4E-7;0;Weather
2.00574062;0.0017552;55.8803;72.1708;294.5304;65.2813;0;-5.4E-7;0;Weather
2.00574029;0.0017539;55.8803;72.1708;294.5495;65.2624;0;-5.4E-7;0;Weather
2.00573979;0.0017514;55.8809;72.1313;294.5816;65.2313;0;-5.5E-7;0;Weather
2.00573984;0.0017525;55.8809;72.1313;294.5631;65.2496;0;-5.5E-7;0;Weather
2.00573915;0.0017504;55.8815;72.0918;294.6012;65.2116;0;-5.6E-7;0;Weather
2.00573887;0.0017492;55.8815;72.0918;294.6257;65.1873;0;-5.6E-7;0;Weather
2.00573887;0.0017492;55.8815;72.0918;294.6257;65.1873;0;-5.6E-7;0;Weather
2.00573808;0.0017468;55.8821;72.0524;294.6681;65.1447;0;-5.7E-7;0;Weather
2.00573782;0.001746;55.8824;72.0326;294.6897;65.1229;0;-5.8E-7;0;Weather
2.00573743;0.0017446;55.8828;72.0129;294.7116;65.1009;0;-5.8E-7;0;Weather
2.00573702;0.0017433;55.8831;71.9932;294.7313;65.0813;0;-5.7E-7;0;Weather
